{
    "links": {
        "self": "http://www.neowsapp.com/rest/v1/neo/3751199?api_key=iIulBulltgU6a56xZRHN4H3l9WmuAYTsLGpBGhQ2"
    },
    "id": "3751199",
    "neo_reference_id": "3751199",
    "name": "(2016 GO206)",
    "designation": "2016 GO206",
    "nasa_jpl_url": "http://ssd.jpl.nasa.gov/sbdb.cgi?sstr=3751199",
    "absolute_magnitude_h": 26.3,
    "estimated_diameter": {
        "kilometers": {
            "estimated_diameter_min": 0.0146067964,
            "estimated_diameter_max": 0.0326617897
        },
        "meters": {
            "estimated_diameter_min": 14.6067964271,
            "estimated_diameter_max": 32.6617897446
        },
        "miles": {
            "estimated_diameter_min": 0.0090762397,
            "estimated_diameter_max": 0.020295089
        },
        "feet": {
            "estimated_diameter_min": 47.92256199,
            "estimated_diameter_max": 107.1581062656
        }
    },
    "is_potentially_hazardous_asteroid": false,
    "close_approach_data": [
        {
            "close_approach_date": "1961-04-21",
            "close_approach_date_full": "1961-Apr-21 23:12",
            "epoch_date_close_approach": -274409280000,
            "relative_velocity": {
                "kilometers_per_second": "30.8053897415",
                "kilometers_per_hour": "110899.403069404",
                "miles_per_hour": "68908.5763127638"
            },
            "miss_distance": {
                "astronomical": "0.2795300724",
                "lunar": "108.7371981636",
                "kilometers": "41817103.431985788",
                "miles": "25983943.1811803544"
            },
            "orbiting_body": "Earth"
        },
        {
            "close_approach_date": "2016-04-06",
            "close_approach_date_full": "2016-Apr-06 15:56",
            "epoch_date_close_approach": 1459958160000,
            "relative_velocity": {
                "kilometers_per_second": "22.7532461308",
                "kilometers_per_hour": "81911.686071029",
                "miles_per_hour": "50896.7362700791"
            },
            "miss_distance": {
                "astronomical": "0.0026761828",
                "lunar": "1.0410351092",
                "kilometers": "400351.246610636",
                "miles": "248766.7291773368"
            },
            "orbiting_body": "Moon"
        },
        {
            "close_approach_date": "2016-04-06",
            "close_approach_date_full": "2016-Apr-06 20:01",
            "epoch_date_close_approach": 1459972860000,
            "relative_velocity": {
                "kilometers_per_second": "22.5380249398",
                "kilometers_per_hour": "81136.8897832354",
                "miles_per_hour": "50415.3079878109"
            },
            "miss_distance": {
                "astronomical": "0.00220211",
                "lunar": "0.85662079",
                "kilometers": "329430.9655057",
                "miles": "204698.90995066"
            },
            "orbiting_body": "Earth"
        }
    ],
    "orbital_data": {
        "orbit_id": "5",
        "orbit_determination_date": "2017-04-06 08:26:38",
        "first_observation_date": "2016-04-09",
        "last_observation_date": "2016-04-10",
        "data_arc_in_days": 1,
        "observations_used": 40,
        "orbit_uncertainty": "8",
        "minimum_orbit_intersection": ".000381186",
        "jupiter_tisserand_invariant": "2.934",
        "epoch_osculation": "2457488.5",
        "eccentricity": ".7739961105248893",
        "semi_major_axis": "2.537085786519842",
        "inclination": "3.324641338428728",
        "ascending_node_longitude": "196.7031283303673",
        "orbital_period": "1476.050292879331",
        "perihelion_distance": ".5733912556855048",
        "perihelion_argument": "271.5934276569682",
        "aphelion_distance": "4.500780317354179",
        "perihelion_time": "2457440.615186040729",
        "mean_anomaly": "11.67882497534035",
        "mean_motion": ".2438941286328044",
        "equinox": "J2000",
        "orbit_class": {
            "orbit_class_type": "APO",
            "orbit_class_description": "Near-Earth asteroid orbits which cross the Earth’s orbit similar to that of 1862 Apollo",
            "orbit_class_range": "a (semi-major axis) > 1.0 AU; q (perihelion) < 1.017 AU"
        }
    },
    "is_sentry_object": false
}